C/2019 N1 (ATLAS),e,82.4270,13.5728,193.4460,36469,0.0000001,0.99995326,0.0000,12/01.7889/2020,2000,g  7.5,4.0
# From MPEC 2020-AA5
A/2019 O2,e,93.2860,48.3235,129.6762,57.38596,0.0022672,0.83129627,357.9439,10/13.0/2020,2000,g  9.5,2.0
# From MPC118843
A/2019 O3,h,03/07.8583/2021,89.8124,300.3791,60.0464,1.001970,8.818545,2000,10.0,2.0
# From MPC117072
A/2019 O4,e,115.0856,354.9194,61.8240,32.85035,0.0052347,0.88905180,1.2877,10/13.0/2020,2000,g 15.5,2.0
# From MPEC 2020-AA5
A/2019 Q1,h,07/19.9432/2020,155.7203,42.3387,55.9525,1.000512,4.996729,2000,12.5,2.0
# From MPC117072
A/2019 Q2,e,159.0200,188.0416,176.2985,57.46194,0.0022627,0.97812932,0.0000,07/22.3314/2019,2000,g 18.0,2.0
# From MPC117072
C/2019 Q3 (PANSTARRS),h,08/21.2709/2018,65.5278,151.3241,152.6722,1.004300,7.252633,2000,8.5,4.0
# From MPC117072
P/2019 S2 (PANSTARRS),e,10.4731,93.1285,216.8291,4.735719,0.0956368,0.20680564,57.3455,10/13.0/2020,2000,g 13.5,4.0
# From MPC118096
P/2019 S3 (PANSTARRS),e,8.6933,150.1614,212.9775,3.414594,0.1562052,0.47087855,64.6417,10/13.0/2020,2000,g 18.3,4.0
# From MPEC 2020-AA5
A/2019 S4,e,92.0238,63.1644,71.3615,235.1927,0.0002733,0.98536639,0.0000,04/07.9657/2020,2000,g 14.5,2.0
# From MPC118843
A/2019 T1,e,120.8695,6.9522,91.0195,38.26338,0.0041642,0.88810107,359.6119,10/13.0/2020,2000,g 13.0,2.0
# From MPEC 2020-AA5
A/2019 T2,e,111.4754,155.6385,239.3870,2650,0.0000072,0.99900157,0.0000,04/22.2614/2021,2000,g 12.5,2.0
# From MPC119998
C/2019 T3 (ATLAS),e,121.8626,139.5196,112.2683,4988,0.0000028,0.99880776,0.0000,03/02.5889/2021,2000,g  6.8,4.0
# From MPC119998
C/2019 T4 (ATLAS),e,53.6172,199.9617,351.2149,1007,0.0000308,0.99578853,0.0000,06/09.3726/2022,2000,g  5.0,4.0
# From MPC119998
P/2019 T5 (ATLAS),e,33.4250,247.6894,189.6007,8.009993,0.0434766,0.80918917,19.0811,10/13.0/2020,2000,g 15.0,4.0
# From MPC119998
P/2019 T6 (PANSTARRS),e,18.6953,71.3061,328.9071,5.434028,0.0778075,0.62243951,26.4724,10/13.0/2020,2000,g 15.5,4.0
# From MPC118096
P/2019 U4 (PANSTARRS),e,11.6910,200.0259,180.9660,3.520475,0.1492114,0.47541096,58.2841,10/13.0/2020,2000,g 19.0,4.0
# From MPC118844
A/2019 U5,h,03/30.2871/2023,113.5252,2.6855,181.6020,1.000669,3.621144,2000,10.0,2.0
# From MPEC 2020-AA5
C/2019 U6,e,61.0005,235.7045,329.6606,429.7059,0.0001106,0.99787240,0.0000,06/18.8224/2020,2000,g 14.5,2.0
# From MPC119998
C/2019 V1 (Borisov),e,61.8625,83.2035,51.1943,2132,0.0000100,0.99854699,0.0000,07/16.5500/2020,2000,g 11.0,4.0
# From MPC119998
P/2019 V2 (Groeller),e,11.8045,189.1625,336.3535,7.514265,0.0478492,0.33239375,359.5277,10/13.0/2020,2000,g 10.0,4.0
# From MPC119998
P/2019 W1 (PANSTARRS),e,23.4602,35.4080,18.7142,4.550460,0.1015363,0.26620959,53.2262,10/13.0/2020,2000,g 12.9,4.0
# From MPC119998
P/2019 X1 (Pruyne),e,10.2446,43.7067,36.6060,6.177464,0.0641932,0.30345310,28.9632,10/13.0/2020,2000,g 10.4,4.0
# From MPC119999
C/2019 Y1 (ATLAS),e,73.2541,31.5185,57.9757,86.23390,0.0012308,0.99035675,0.0000,03/15.5947/2020,2000,g 13.7,4.0
# From MPC119999
P/2019 Y2 (Fuls),e,4.9018,81.0812,91.7471,3.529014,0.1486702,0.39614154,38.1066,10/13.0/2020,2000,g 13.2,4.0
# From MPEC 2020-L06
C/2019 Y4 (ATLAS),e,45.3829,120.5719,177.3065,533.2678,0.0000800,0.99952573,0.0000,05/31.0583/2020,2000,g 11.8,6.0
# From MPEC 2020-L06
C/2019 Y4-A (ATLAS),h,05/31.0416/2020,45.8246,120.9282,177.2491,1.001341,0.251044,2000,11.6,6.0
# From MPEC 2020-L06
C/2019 Y4-B (ATLAS),e,45.4592,120.6240,177.3824,1076,0.0000279,0.99976533,0.0000,05/31.0204/2020,2000,g 12.8,6.0
# From MPEC 2020-L06
C/2019 Y4-C (ATLAS),h,05/30.9999/2020,45.6069,120.6539,177.2825,1.002058,0.252094,2000,12.7,6.0
# From MPEC 2020-L06
C/2019 Y4-D (ATLAS),e,45.6483,121.0345,177.4213,67.21632,0.0017885,0.99625845,0.0000,05/31.1170/2020,2000,g 12.5,6.0
# From MPEC 2020-L06
C/2020 A2 (Iwamoto),e,120.7487,286.3789,68.2122,1235,0.0000227,0.99920792,0.0000,01/08.3379/2020,2000,g 13.5,4.0
# From MPEC 2020-L06
C/2020 A3 (ATLAS),h,07/29.6232/2019,146.7768,120.3772,271.1657,1.024905,5.839471,2000,8.0,4.0
# From MPEC 2020-L06
C/2020 B3 (Rankin),e,20.7049,185.8264,325.0799,1569,0.0000159,0.99786819,0.0000,10/19.8136/2019,2000,g 13.0,4.0
# From MPEC 2020-L06
C/2020 F2 (ATLAS),h,07/16.6712/2022,163.5751,250.2506,48.3728,1.002452,8.816987,2000,4.5,4.0
# From MPEC 2020-L06
C/2020 F3 (NEOWISE),e,128.9349,61.0129,37.2711,369.7065,0.0001386,0.99920279,0.0000,07/03.6831/2020,2000,g 12.5,3.2
# From MPEC 2020-L06
C/2020 F5 (MASTER),h,03/23.9758/2021,51.7008,350.6276,311.0190,1.002131,4.326813,2000,6.5,3.2
# From MPEC 2020-L06
C/2020 F6 (PANSTARRS),e,174.5815,207.8810,344.5989,378.6559,0.0001338,0.99072764,0.0000,04/11.6025/2020,2000,g 14.5,2.8
# From MPEC 2020-L06
A/2020 F7,e,93.9509,321.8861,227.9897,782.1240,0.0000451,0.99318317,0.0000,11/14.1271/2021,2000,g 12.0,2.0
# From MPEC 2020-KB7
C/2020 F8 (SWAN),e,110.7938,260.0080,68.2223,273.8972,0.0002174,0.99842867,0.0000,05/27.5666/2020,2000,g 10.0,4.0
# From MPEC 2020-L06
P/2020 G1 (Pimentel),e,18.4770,240.0933,207.6636,3.611614,0.1435992,0.85992754,30.0969,10/13.0/2020,2000,g 17.0,4.0
# From MPEC 2020-L06
C/2020 H2 (Pruyne),e,125.0436,277.6361,26.6966,185.8064,0.0003891,0.99551330,0.0000,04/27.5924/2020,2000,g 18.0,4.0
# From MPEC 2020-HM1
C/2020 H3 (Wierzchos),p,06/05.7162/2020,62.5292,30.4456,2.300288,270.6227,2000,13.5,4.0
# From MPEC 2020-L06
C/2020 H4 (Leonard),e,84.5148,307.7367,117.6126,48.18950,0.0029463,0.98075894,0.0000,08/29.5181/2020,2000,g 15.0,3.2
# From MPEC 2020-L06
C/2020 H5 (Robinson),e,70.2475,210.6014,325.0642,1085,0.0000276,0.99136391,0.0000,11/14.8874/2020,2000,g  5.0,4.0
# From MPEC 2020-L06
C/2020 H6 (ATLAS),h,09/30.9379/2021,79.9630,213.6992,20.3113,1.000880,4.704809,2000,8.0,3.2
# From MPEC 2020-KB7
C/2020 H7 (Lemmon),e,135.9235,323.5194,82.6780,1405,0.0000187,0.99685380,0.0000,06/02.9510/2020,2000,g 11.0,4.0
# From MPEC 2020-KB7
C/2020 H8 (PANSTARRS),p,06/06.7207/2020,99.7116,129.2192,4.678446,68.3225,2000,10.5,4.0
# From MPEC 2020-L06
A/2020 H9,e,137.8697,213.1197,312.8807,522.8686,0.0000824,0.99506746,0.0000,12/21.3346/2019,2000,g 18.0,2.0
# From MPEC 2020-L06
C/2020 J1 (SONEAR),e,142.2974,226.5830,341.7084,492.8295,0.0000901,0.99318200,0.0000,04/19.3191/2021,2000,g  8.5,3.2
# From MPEC 2020-L06
C/2020 K1 (PANSTARRS),h,05/08.1274/2023,89.6519,94.3683,213.9047,1.000800,3.074890,2000,5.5,4.0
# From MPEC 2020-KF5
C/2020 K2 (PANSTARRS),p,12/30.6730/2018,89.7510,34.2348,8.177098,285.5819,2000,6.5,4.0
# From MPEC 2020-KF9
C/2020 K3 (Leonard),p,06/01.0032/2020,129.0152,64.4924,1.583069,28.3546,2000,14.5,4.0
# From MPEC 2020-L06
C/2020 K4 (PANSTARRS),e,125.5622,264.0945,308.7654,23.90101,0.0084349,0.92666368,1.8831,10/13.0/2020,2000,g 16.5,4.0
# From MPEC 2020-L06
C/2020 K5 (PANSTARRS),h,06/05.5989/2021,67.1651,86.1605,249.6038,1.001443,1.535334,2000,11.0,4.0
# From MPEC 2020-L06
C/2020 K6 (Rankin),h,08/26.0518/2021,103.8043,291.5643,41.6599,1.001116,5.993888,2000,8.0,4.0
# From MPEC 2020-L09
C/2020 K7 (PANSTARRS),p,10/05.3027/2021,34.5520,60.8413,5.644571,287.4776,2000,8.0,4.0
# From MPEC 2020-SI8
C/2020 K8 (Catalina-ATLAS),h,09/14.5161/2020,31.4136,181.5193,260.0552,1.000320,0.474612,2000,15.0,3.2
# From MPEC 2020-SI8
P/2020 K9 (Lemmon-PANSTARRS),e,23.2059,166.2397,196.8502,4.202267,0.1144139,0.32189830,346.0754,10/13.0/2020,2000,g 12.5,4.0
# From MPEC 2020-K19
P/2020 M1 (PANSTARRS),e,8.6347,142.9364,67.9341,5.094170,0.0857223,0.47757662,25.4255,10/13.0/2020,2000,g 14.5,4.0
# From MPEC 2020-N01
P/2020 M2 (Lemmon),e,10.9285,8.2101,14.3997,3.826021,0.1316992,0.40488882,15.2402,10/13.0/2020,2000,g 12.0,4.0
# From MPEC 2020-SI8
C/2020 M3 (ATLAS),e,23.4728,71.2484,328.4474,26.78315,0.0071107,0.95264858,359.9102,10/13.0/2020,2000,g 14.5,4.0
# From MPEC 2020-K19
A/2020 M4,e,160.1256,348.6314,104.6316,5555,0.0000024,0.99892856,0.0000,11/23.6988/2020,2000,g 14.5,2.0
# From MPEC 2020-SI8
C/2020 M5 (ATLAS),e,93.2224,352.0979,126.3369,7313,0.0000016,0.99958914,0.0000,08/19.8954/2021,2000,g  9.0,4.0
# From MPEC 2020-SI8
C/2020 N1 (PANSTARRS),h,03/12.2337/2021,29.7037,279.9820,186.7742,1.000416,1.320688,2000,12.5,4.0
# From MPEC 2020-K19
C/2020 N2 (ATLAS),e,161.0354,257.0577,331.1629,126.8208,0.0006901,0.98585192,0.0000,08/23.6162/2020,2000,g 16.0,3.2
# From MPEC 2020-SI8
P/2020 O1 (Lemmon-PANSTARRS),e,5.2244,175.9795,104.7502,2.645875,0.2290077,0.11972248,37.2202,10/13.0/2020,2000,g 15.5,4.0
# From MPEC 2020-K19
C/2020 O2 (Amaral),e,71.8915,256.6300,9.3969,19434,0.0000004,0.99974765,0.0000,08/23.9036/2021,2000,g  8.0,3.2
# From MPEC 2020-SI8
P/2020 O3 (PANSTARRS),e,8.4417,266.8836,81.3474,4.660017,0.0979767,0.10585064,349.4332,10/13.0/2020,2000,g 12.0,4.0
# From MPEC 2020-SI8
C/2020 P1 (NEOWISE),h,10/20.1770/2020,45.0690,53.5466,8.8872,1.000627,0.342054,2000,14.0,3.2
# From MPEC 2020-SI8
C/2020 P3 (ATLAS),e,61.8909,19.5077,82.2657,20297,0.0000003,0.99966436,0.0000,04/21.1935/2021,2000,g  6.0,4.0
# From MPEC 2020-QN1
C/2020 P4-A (SOHO),h,08/08.2177/2020,26.3311,175.2067,177.4766,1.002091,0.090759,2000,5.3,6.0
# From MPEC 2020-QN1
C/2020 P4-B (SOHO),h,08/08.1269/2020,27.3012,171.4994,173.4038,1.000485,0.098304,2000,0.0,6.0
# From MPEC 2020-QN1
C/2020 P4-C (SOHO),h,08/06.8017/2020,37.4581,164.0414,116.7333,1.012860,0.086546,2000,-1.6,6.0
# From MPEC 2020-SI8
C/2020 Q1 (Borisov),e,142.9239,52.3598,9.8031,52.65075,0.0025799,0.97503432,0.0000,08/14.5694/2020,2000,g 14.0,4.0
# From MPEC 2020-SI8
C/2020 R2 (PANSTARRS),e,53.2378,195.0832,211.7298,446.7014,0.0001044,0.98949890,0.0000,02/24.2483/2022,2000,g  9.0,4.0
# From MPEC 2020-SI8
C/2020 R4 (ATLAS),e,164.4628,323.2728,46.7031,98.35122,0.0010105,0.98954020,0.0000,03/01.9316/2021,2000,g 13.5,4.0
# From MPEC 2020-SI8
P/2020 R5 (PANSTARRS),e,11.4544,272.9701,82.3262,4.978969,0.0887146,0.31449073,12.2221,10/13.0/2020,2000,g  9.5,6.0
# From MPEC 2020-SI8
C/2020 R6 (Rankin),h,09/15.2619/2019,81.2823,12.6197,268.6519,1.024202,2.943131,2000,11.0,4.0
# From MPEC 2020-SI8
C/2020 R7 (ATLAS),h,09/04.8038/2022,114.9512,268.4770,346.9806,1.027761,2.959982,2000,9.0,4.0
# From MPEC 2020-SI8
